METOP-B                 
1 38771U 12049A   23036.11963338  .00000145  00000+0  86078-4 0  9992
2 38771  98.6985  97.5878 0001530  87.7471 334.8130 14.21478240538786
FENGYUN 3C              
1 39260U 13052A   23035.82498539  .00000112  00000+0  77337-4 0  9996
2 39260  98.4380  56.9510 0010551 330.3508  29.7068 14.15985095484807
METEOR-M 2              
1 40069U 14037A   23036.01319509  .00000038  00000+0  36604-4 0  9999
2 40069  98.4262  48.1126 0006019  17.6552 342.4843 14.20741303444887
HIMAWARI-8              
1 40267U 14060A   23035.88067316 -.00000273  00000+0  00000+0 0  9993
2 40267   0.0277 204.9547 0000935 124.8357 262.6529  1.00270955 30447
FENGYUN 2G              
1 40367U 14090A   23036.10294534 -.00000300  00000+0  00000+0 0  9998
2 40367   2.5189  87.1117 0001160 258.4842 286.2028  1.00266709 29722
METEOSAT-11 (MSG-4)     
1 40732U 15034A   23035.85049449  .00000003  00000+0  00000+0 0  9996
2 40732   0.4647   9.4062 0000103 278.9712 153.2592  1.00265439 27703
ELEKTRO-L 2             
1 41105U 15074A   23035.89910392 -.00000115  00000+0  00000+0 0  9998
2 41105   3.5733  85.4233 0002028 178.7238 179.8131  1.00272851 26191
HIMAWARI-9              
1 41836U 16064A   23035.88067315 -.00000272  00000+0  00000+0 0  9990
2 41836   0.0504 270.0999 0001220  68.0084 254.4332  1.00273800 22873
GOES 16                 
1 41866U 16071A   23035.27921650 -.00000245  00000+0  00000+0 0  9995
2 41866   0.0778 264.9510 0000894  68.9881 185.5389  1.00270812 22797
FENGYUN 4A              
1 41882U 16077A   23036.29355131 -.00000326  00000+0  00000+0 0  9997
2 41882   0.1118  79.1720 0005011 339.4033 286.9278  1.00268240 22665
CYGFM05                 
1 41884U 16078A   23035.81422633  .00005641  00000+0  27082-3 0  9996
2 41884  34.9542 193.0663 0014645  11.2576 348.8462 15.18126592340095
CYGFM04                 
1 41885U 16078B   23035.78237498  .00005900  00000+0  27869-3 0  9997
2 41885  34.9478 181.1581 0012866  29.9894 330.1553 15.18699105340149
CYGFM02                 
1 41886U 16078C   23035.76719298  .00005610  00000+0  26473-3 0  9997
2 41886  34.9567 183.5362 0013614  23.2280 336.9046 15.18738705340220
CYGFM01                 
1 41887U 16078D   23035.78077705  .00005224  00000+0  25237-3 0  9998
2 41887  34.9509 196.0503 0015033   9.7475 350.3527 15.17918980340032
CYGFM08                 
1 41888U 16078E   23035.75683759  .00005414  00000+0  25777-3 0  9998
2 41888  34.9481 187.7190 0014055  22.9733 337.1606 15.18430084340179
CYGFM07                 
1 41890U 16078G   23035.74014875  .00005471  00000+0  25872-3 0  9996
2 41890  34.9502 181.2235 0012347  27.5123 332.6241 15.18682935340147
CYGFM03                 
1 41891U 16078H   23035.73860376  .00005513  00000+0  26068-3 0  9996
2 41891  34.9535 181.7601 0011905  25.1574 334.9716 15.18685879340130
FENGYUN 3D              
1 43010U 17072A   23036.08234628  .00000131  00000+0  83800-4 0  9999
2 43010  98.8449 344.8262 0001392  10.3537 349.7664 14.19138510270769
NOAA 20                 
1 43013U 17073A   23036.17467298  .00000079  00000+0  58042-4 0  9995
2 43013  98.7412 336.3314 0001639  89.1936 270.9428 14.19553101270249
GOES 17                 
1 43226U 18022A   23036.15514352 -.00000106  00000+0  00000+0 0  9996
2 43226   0.0029 357.2153 0001065 355.8932  88.4634  1.00596944 18126
FENGYUN 2H              
1 43491U 18050A   23035.88375012 -.00000128  00000+0  00000+0 0  9992
2 43491   1.7376  93.1539 0001795  74.8487   4.2855  1.00271900 17122
METOP-C                 
1 43689U 18087A   23036.14414406  .00000135  00000+0  81905-4 0  9997
2 43689  98.7030  97.6814 0004090  89.2808 270.8838 14.21482317220364
GEO-KOMPSAT-2A          
1 43823U 18100A   23035.96522480 -.00000341  00000+0  00000+0 0  9996
2 43823   0.0142 108.2829 0000881 277.6345 224.6560  1.00271334 15349
METEOR-M2 2             
1 44387U 19038A   23036.05303824  .00000063  00000+0  46829-4 0  9997
2 44387  98.7566   0.3534 0001187  11.9912 348.1297 14.23746523186505
FENGYUN 3E              
1 49008U 21062A   23036.08026849  .00000029  00000+0  34203-4 0  9999
2 49008  98.7192  39.4462 0002685  55.6051 304.5378 14.19757080 82327
GOES 18                 
1 51850U 22021A   23035.76886677  .00000099  00000+0  00000+0 0  9990
2 51850   0.0071 315.0308 0000309   4.6281 314.7809  1.00273819  3468
NOAA 21 (JPSS-2)        
1 54234U 22150A   23035.83983863  .00000104  00000+0  70175-4 0  9997
2 54234  98.7051 335.9502 0001115  83.1233 277.0070 14.19565331 12278
METEOSAT-12             
1 54743U 22170C   23035.93901266 -.00000028  00000+0  00000+0 0  9993
2 54743   0.8814 299.9629 0002147  86.9046  82.6450  1.00264748   668
SHIJIAN-23 (SJ-23)      
1 55131U 23002A   23035.36021521 -.00000233  00000+0  00000+0 0  9992
2 55131   0.5465  94.9963 0004001  52.6009 221.9385  0.99687894   374
CZ-7A R/B               
1 55132U 23002B   23035.49146136  .00104492  10335-5  23810-2 0  9993
2 55132  16.5500  87.2995 7148133 200.6455 101.4647  2.49817543   651
2023-003A               
1 55133U 23003A   23036.22445324  .00016589  00000+0  81304-3 0  9992
2 55133  97.2688 125.2585 0007160 162.8896 249.5986 15.18186445  4090
2023-003B               
1 55134U 23003B   23036.16923113  .00007730  00000+0  34612-3 0  9991
2 55134  97.2697 125.3325 0013245 190.6134 229.0939 15.21454559  4087
2023-003C               
1 55135U 23003C   23036.23088291  .00006589  00000+0  29451-3 0  9995
2 55135  97.2721 125.4089 0013154 194.1321 218.7341 15.21573141  4115
2023-003D               
1 55136U 23003D   23036.22650668  .00011002  00000+0  48413-3 0  9993
2 55136  97.2691 125.4042 0012502 197.4679 215.0962 15.21957222  4103
2023-003E               
1 55137U 23003E   23036.22767633  .00006729  00000+0  29833-3 0  9990
2 55137  97.2666 125.3926 0013062 196.7415 215.7629 15.21846134  4104
ONEWEB-0532             
1 55140U 23004A   23035.94647749  .00002949  00000+0  29397-3 0  9993
2 55140  86.5103 274.3833 0013844 124.9575 235.2955 14.91159596  3984
ONEWEB-0533             
1 55141U 23004B   23035.94390422  .00002034  00000+0  20098-3 0  9991
2 55141  86.5096 274.3779 0014821 123.5936 236.6708 14.91310859  3989
ONEWEB-0541             
1 55142U 23004C   23036.00002315  .00047292  00000+0  69739-2 0  9990
2 55142  86.6369 274.6071 0012454 120.8396 351.2713 14.75036427  3979
ONEWEB-0543             
1 55143U 23004D   23035.75023249  .00003188  00000+0  32054-3 0  9998
2 55143  86.5124 274.4826 0011971 125.3721 234.8627 14.90859393  3959
ONEWEB-0544             
1 55144U 23004E   23035.93525186  .00003058  00000+0  29978-3 0  9993
2 55144  86.5095 274.3755 0015815 130.8361 229.4241 14.91816446  3987
ONEWEB-0560             
1 55145U 23004F   23035.93475494  .00005730  00000+0  56374-3 0  9999
2 55145  86.5110 274.3778 0016012 130.7397 229.5224 14.91838186  3986
ONEWEB-0565             
1 55146U 23004G   23035.93041836  .00003152  00000+0  30677-3 0  9993
2 55146  86.5093 274.3725 0016140 135.0790 225.1748 14.92099888  3988
ONEWEB-0567             
1 55147U 23004H   23035.93146265  .00002754  00000+0  26805-3 0  9991
2 55147  86.5087 274.3704 0016043 133.4406 226.8160 14.92043934  3984
ONEWEB-0569             
1 55148U 23004J   23035.94238991  .00003376  00000+0  33483-3 0  9992
2 55148  86.5096 274.3770 0014404 125.7129 234.5441 14.91402599  3986
ONEWEB-0570             
1 55149U 23004K   23035.94116867  .00003802  00000+0  37670-3 0  9996
2 55149  86.5095 274.3762 0014694 126.2752 233.9835 14.91477551  3986
ONEWEB-0571             
1 55150U 23004L   23035.93329492  .00000377  00000+0  34223-4 0  9993
2 55150  86.5120 274.3786 0016069 132.2205 228.0390 14.91938565  3989
ONEWEB-0572             
1 55151U 23004M   23036.14461562  .00003025  00000+0  30017-3 0  9992
2 55151  86.5107 274.2958 0014213 124.3299 235.9275 14.91348394  4018
ONEWEB-0573             
1 55152U 23004N   23035.94233104  .00003008  00000+0  29802-3 0  9990
2 55152  86.5107 274.3843 0014722 127.5068 232.7500 14.91398923  3981
ONEWEB-0588             
1 55153U 23004P   23035.75209440  .00000719  00000+0  70203-4 0  9994
2 55153  86.5123 274.4846 0011393 125.9818 234.2467 14.90756312  3955
ONEWEB-0598             
1 55154U 23004Q   23035.91377390  .00001400  00000+0  20364-3 0  9993
2 55154  86.6341 274.6403 0012321 122.1065 238.1351 14.75129452  3963
ONEWEB-0599             
1 55155U 23004R   23035.94167599 -.00002797  00000+0 -28317-3 0  9993
2 55155  86.5107 274.3846 0014590 125.5110 234.7481 14.91393394  3983
ONEWEB-0614             
1 55156U 23004S   23036.00002315  .00047987  00000+0  70486-2 0  9997
2 55156  86.6348 274.5955 0013078 124.2720   5.3546 14.75196111  3971
ONEWEB-0616             
1 55157U 23004T   23035.94546346  .00002940  00000+0  29262-3 0  9994
2 55157  86.5092 274.3781 0013747 124.2808 235.9723 14.91218109  3981
ONEWEB-0617             
1 55158U 23004U   23035.92454268  .00001031  00000+0  14919-3 0  9997
2 55158  86.6353 274.6662 0010575 123.6807 236.5422 14.75111589  3969
ONEWEB-0618             
1 55159U 23004V   23035.94436054 -.00003295  00000+0 -33436-3 0  9994
2 55159  86.5107 274.3856 0014055 124.3337 235.9222 14.91250694  3983
ONEWEB-0619             
1 55160U 23004W   23035.93964761  .00001512  00000+0  14768-3 0  9991
2 55160  86.5101 274.3781 0014955 126.7451 233.5152 14.91571096  3986
ONEWEB-0620             
1 55161U 23004X   23035.91535401  .00001512  00000+0  22010-3 0  9994
2 55161  86.6321 274.6383 0012249 125.5871 234.6491 14.75168861  3960
ONEWEB-0621             
1 55162U 23004Y   23036.00002315 -.00928256  00000+0 -22585+0 0  9997
2 55162  86.7058 274.8739 0008351 129.8333 183.7183 14.55790800  3958
ONEWEB-0622             
1 55163U 23004Z   23035.92143567  .00001440  00000+0  21008-3 0  9991
2 55163  86.6358 274.6608 0011960 127.3502 232.8808 14.75044364  3965
